[{"OBJECT_NAME":"TIANMU-1 07","OBJECT_ID":"2023-101A","EPOCH":"2026-03-06T13:47:20.454720","MEAN_MOTION":15.29118809,"ECCENTRICITY":0.00046097,"INCLINATION":97.2728,"RA_OF_ASC_NODE":118.5929,"ARG_OF_PERICENTER":142.4105,"MEAN_ANOMALY":217.7458,"EPHEMERIS_TYPE":0,"CLASSIFICATION_TYPE":"U","NORAD_CAT_ID":57399,"ELEMENT_SET_NO":999,"REV_AT_EPOCH":14596,"BSTAR":0.00029794732,"MEAN_MOTION_DOT":8.352e-5,"MEAN_MOTION_DDOT":0},{"OBJECT_NAME":"STARLINK-31107","OBJECT_ID":"2023-211T","EPOCH":"2026-03-09T01:25:21.238176","MEAN_MOTION":15.27585804,"ECCENTRICITY":0.0001392,"INCLINATION":42.9994,"RA_OF_ASC_NODE":89.2231,"ARG_OF_PERICENTER":277.9362,"MEAN_ANOMALY":82.1331,"EPHEMERIS_TYPE":0,"CLASSIFICATION_TYPE":"U","NORAD_CAT_ID":58684,"ELEMENT_SET_NO":999,"REV_AT_EPOCH":12236,"BSTAR":-3.73663e-7,"MEAN_MOTION_DOT":-2.72e-6,"MEAN_MOTION_DDOT":0}]
